$$SOE
2459580.500000000, A.D. 2022-Jan-01 00:00:00.0000, 1.534307963663059E+08, 3.103003747765527E+07, -2.258384772383161E+05,
2459587.500000000, A.D. 2022-Jan-08 00:00:00.0000, 1.409981146648003E+08, 4.652802768293256E+07, 4.729989736087285E+05,
2459594.500000000, A.D. 2022-Jan-15 00:00:00.0000, 1.264768176458289E+08, 6.132888620826915E+07, 1.164531557367090E+06,
2459601.500000000, A.D. 2022-Jan-22 00:00:00.0000, 1.097502474518247E+08, 7.504976638267584E+07, 1.835357451308217E+06,
2459608.500000000, A.D. 2022-Jan-29 00:00:00.0000, 9.076699572781363E+07, 8.721302894368100E+07, 2.467898812451895E+06,
2459615.500000000, A.D. 2022-Feb-05 00:00:00.0000, 6.959051868920797E+07, 9.724921216431743E+07, 3.040062016249888E+06,
2459622.500000000, A.D. 2022-Feb-12 00:00:00.0000, 4.646019168900239E+07, 1.045279638728050E+08, 3.525849872461542E+06,
2459629.500000000, A.D. 2022-Feb-19 00:00:00.0000, 2.184663919818858E+07, 1.084321032131656E+08, 3.897655504061513E+06,
2459636.500000000, A.D. 2022-Feb-26 00:00:00.0000, -3.532583943184067E+06, 1.084765756332604E+08, 4.130613743464068E+06,
2459643.500000000, A.D. 2022-Mar-05 00:00:00.0000, -2.877395942397981E+07, 1.044415336212242E+08, 4.208184732053377E+06,
2459650.500000000, A.D. 2022-Mar-12 00:00:00.0000, -5.293054611051629E+07, 9.645647695344235E+07, 4.126631841456778E+06,
2459657.500000000, A.D. 2022-Mar-19 00:00:00.0000, -7.518416849862112E+07, 8.498161576874092E+07, 3.895886679006111E+06,
2459664.500000000, A.D. 2022-Mar-26 00:00:00.0000, -9.496818216846041E+07, 7.069295868921311E+07, 3.536326280149620E+06,
2459671.500000000, A.D. 2022-Apr-02 00:00:00.0000, -1.119977952877878E+08, 5.433422617342120E+07, 3.073454467037916E+06,
2459678.500000000, A.D. 2022-Apr-09 00:00:00.0000, -1.262247093725736E+08, 3.659954646562199E+07, 2.533056524764128E+06,
2459685.500000000, A.D. 2022-Apr-16 00:00:00.0000, -1.377609725644895E+08, 1.807178393534068E+07, 1.938175157044888E+06,
2459692.500000000, A.D. 2022-Apr-23 00:00:00.0000, -1.468075660568712E+08, -7.926753740778434E+05, 1.307884900339354E+06,
2459699.500000000, A.D. 2022-Apr-30 00:00:00.0000, -1.536024054839476E+08, -1.965284319132853E+07, 6.572370769562060E+05,
2459706.500000000, A.D. 2022-May-07 00:00:00.0000, -1.583881682992652E+08, -3.826211361968799E+07, -2.239409344131127E+03,
2459713.500000000, A.D. 2022-May-14 00:00:00.0000, -1.613949593361511E+08, -5.644649624995002E+07, -6.618738002965152E+05,
2459720.500000000, A.D. 2022-May-21 00:00:00.0000, -1.628324635006070E+08, -7.408591796652032E+07, -1.315218594702356E+06,
2459727.500000000, A.D. 2022-May-28 00:00:00.0000, -1.628875582538393E+08, -9.109950950353347E+07, -1.957515375755940E+06,
2459734.500000000, A.D. 2022-Jun-04 00:00:00.0000, -1.617247892322957E+08, -1.074345509866974E+08, -2.585272787331887E+06,
2459741.500000000, A.D. 2022-Jun-11 00:00:00.0000, -1.594881793186823E+08, -1.230583724212905E+08, -3.195944017262213E+06,
2459748.500000000, A.D. 2022-Jun-18 00:00:00.0000, -1.563035275364889E+08, -1.379524975047224E+08, -3.787684584053665E+06,
2459755.500000000, A.D. 2022-Jun-25 00:00:00.0000, -1.522807614901781E+08, -1.521084364982031E+08, -4.359171949767277E+06,
2459762.500000000, A.D. 2022-Jul-02 00:00:00.0000, -1.475161365197516E+08, -1.655246711736273E+08, -4.909471589836858E+06,
2459769.500000000, A.D. 2022-Jul-09 00:00:00.0000, -1.420941983877801E+08, -1.782044944150476E+08, -5.437937552481957E+06,
2459776.500000000, A.D. 2022-Jul-16 00:00:00.0000, -1.360894905720806E+08, -1.901544598435027E+08, -5.944138384448394E+06,
2459783.500000000, A.D. 2022-Jul-23 00:00:00.0000, -1.295680200751536E+08, -2.013832673594982E+08, -6.427801532795608E+06,
2459790.500000000, A.D. 2022-Jul-30 00:00:00.0000, -1.225885063667721E+08, -2.119009641390771E+08, -6.888771601723999E+06,
2459797.500000000, A.D. 2022-Aug-06 00:00:00.0000, -1.152034384230208E+08, -2.217183723817524E+08, -7.326979154791251E+06,
2459804.500000000, A.D. 2022-Aug-13 00:00:00.0000, -1.074599686474179E+08, -2.308466783066796E+08, -7.742417135801792E+06,
2459811.500000000, A.D. 2022-Aug-20 00:00:00.0000, -9.940067064127074E+07, -2.392971380297148E+08, -8.135122877892345E+06,
2459818.500000000, A.D. 2022-Aug-27 00:00:00.0000, -9.106418292351566E+07, -2.470808688273696E+08, -8.505164346127391E+06,
2459825.500000000, A.D. 2022-Sep-03 00:00:00.0000, -8.248575726021233E+07, -2.542087026570233E+08, -8.852629594895408E+06,
2459832.500000000, A.D. 2022-Sep-10 00:00:00.0000, -7.369772742663108E+07, -2.606910850800558E+08, -9.177618666648969E+06,
2459839.500000000, A.D. 2022-Sep-17 00:00:00.0000, -6.472991167486803E+07, -2.665380073565275E+08, -9.480237352055341E+06,
2459846.500000000, A.D. 2022-Sep-24 00:00:00.0000, -5.560995992700196E+07, -2.717589628262649E+08, -9.760592382196277E+06,
2459853.500000000, A.D. 2022-Oct-01 00:00:00.0000, -4.636365466597144E+07, -2.763629210441672E+08, -1.001878774460779E+07,
2459860.500000000, A.D. 2022-Oct-08 00:00:00.0000, -3.701517277997950E+07, -2.803583143304299E+08, -1.025492186602524E+07,
2459867.500000000, A.D. 2022-Oct-15 00:00:00.0000, -2.758731568353240E+07, -2.837530319915488E+08, -1.046908528641799E+07,
2459874.500000000, A.D. 2022-Oct-22 00:00:00.0000, -1.810171524616681E+07, -2.865544212855501E+08, -1.066135861493233E+07,
2459881.500000000, A.D. 2022-Oct-29 00:00:00.0000, -8.579017529258061E+06, -2.887692958116150E+08, -1.083181109633680E+07,
2459888.500000000, A.D. 2022-Nov-05 00:00:00.0000, 9.609539589795721E+05, -2.904039471949145E+08, -1.098049966996862E+07,
2459895.500000000, A.D. 2022-Nov-12 00:00:00.0000, 1.049905027265686E+07, -2.914641578022586E+08, -1.110746817035317E+07,
2459902.500000000, A.D. 2022-Nov-19 00:00:00.0000, 2.001666077855903E+07, -2.919552147418092E+08, -1.121274662960181E+07,
2459909.500000000, A.D. 2022-Nov-26 00:00:00.0000, 2.949558646154175E+07, -2.918819250731836E+08, -1.129635069773793E+07,
2459916.500000000, A.D. 2022-Dec-03 00:00:00.0000, 3.891792077773991E+07, -2.912486319422988E+08, -1.135828116509205E+07,
2459923.500000000, A.D. 2022-Dec-10 00:00:00.0000, 4.826593614431480E+07, -2.900592314526538E+08, -1.139852356392774E+07,
2459930.500000000, A.D. 2022-Dec-17 00:00:00.0000, 5.752197431287620E+07, -2.883171902365050E+08, -1.141704783474950E+07,
2459937.500000000, A.D. 2022-Dec-24 00:00:00.0000, 6.666833909844395E+07, -2.860255638518296E+08, -1.141380806120737E+07,
2459944.500000000, A.D. 2022-Dec-31 00:00:00.0000, 7.568719026420628E+07, -2.831870160951881E+08, -1.138874229281409E+07,
2459951.500000000, A.D. 2023-Jan-07 00:00:00.0000, 8.456043714310579E+07, -2.798038385948226E+08, -1.134177238752972E+07,
2459958.500000000, A.D. 2023-Jan-14 00:00:00.0000, 9.326962845930463E+07, -2.758779706226844E+08, -1.127280365500386E+07,
2459965.500000000, A.D. 2023-Jan-21 00:00:00.0000, 1.017958360820057E+08, -2.714110228419363E+08, -1.118172450550534E+07,
2459972.500000000, A.D. 2023-Jan-28 00:00:00.0000, 1.101195346784324E+08, -2.664043058721338E+08, -1.106840646682438E+07,
2459979.500000000, A.D. 2023-Feb-04 00:00:00.0000, 1.182204752348980E+08, -2.608588615205815E+08, -1.093270431863460E+07,
2459986.500000000, A.D. 2023-Feb-11 00:00:00.0000, 1.260775486558236E+08, -2.547754979829842E+08, -1.077445621888444E+07,
2459993.500000000, A.D. 2023-Feb-18 00:00:00.0000, 1.336686371586309E+08, -2.481548312375887E+08, -1.059348391625632E+07,
2460000.500000000, A.D. 2023-Feb-25 00:00:00.0000, 1.409704512274507E+08, -2.409973345675124E+08, -1.038959313004626E+07,
2460007.500000000, A.D. 2023-Mar-04 00:00:00.0000, 1.479583493807983E+08, -2.333033984421707E+08, -1.016257416400816E+07,
2460014.500000000, A.D. 2023-Mar-11 00:00:00.0000, 1.546061375114016E+08, -2.250734036193437E+08, -9.912202834802464E+06,
2460021.500000000, A.D. 2023-Mar-18 00:00:00.0000, 1.608858440701440E+08, -2.163078111694325E+08, -9.638241827437922E+06,
2460028.500000000, A.D. 2023-Mar-25 00:00:00.0000, 1.667674669355170E+08, -2.070072741595640E+08, -9.340442638372585E+06,
2460035.500000000, A.D. 2023-Apr-01 00:00:00.0000, 1.722186873452746E+08, -1.971727766749898E+08, -9.018548295808241E+06,
2460042.500000000, A.D. 2023-Apr-08 00:00:00.0000, 1.772045444259208E+08, -1.868058068418342E+08, -8.672296943966873E+06,
2460049.500000000, A.D. 2023-Apr-15 00:00:00.0000, 1.816870612355510E+08, -1.759085752427240E+08, -8.301426493981943E+06,
2460056.500000000, A.D. 2023-Apr-22 00:00:00.0000, 1.856248164262491E+08, -1.644842952611386E+08, -7.905681196563214E+06,
2460063.500000000, A.D. 2023-Apr-29 00:00:00.0000, 1.889724556131115E+08, -1.525375408965319E+08, -7.484820797180526E+06,
2460070.500000000, A.D. 2023-May-06 00:00:00.0000, 1.916801312278219E+08, -1.400747038866859E+08, -7.038632772706218E+06,
2460077.500000000, A.D. 2023-May-13 00:00:00.0000, 1.936928599802712E+08, -1.271045825258409E+08, -6.566948732454486E+06,
2460084.500000000, A.D. 2023-May-20 00:00:00.0000, 1.949497886577546E+08, -1.136391448625652E+08, -6.069666552695759E+06,
2460091.500000000, A.D. 2023-May-27 00:00:00.0000, 1.953833609772094E+08, -9.969452305763224E+07, -5.546780340796307E+06,
2460098.500000000, A.D. 2023-Jun-03 00:00:00.0000, 1.949183831192327E+08, -8.529231542114985E+07, -4.998421101725303E+06,
2460105.500000000, A.D. 2023-Jun-10 00:00:00.0000, 1.934709960157768E+08, -7.046129948220569E+07, -4.424912086705212E+06,
2460112.500000000, A.D. 2023-Jun-17 00:00:00.0000, 1.909475825411057E+08, -5.523969538107076E+07, -3.826844351711020E+06,
2460119.500000000, A.D. 2023-Jun-24 00:00:00.0000, 1.872436745028402E+08, -3.967816580544429E+07, -3.205180180302300E+06,
2460126.500000000, A.D. 2023-Jul-01 00:00:00.0000, 1.822429891110486E+08, -2.384379717105599E+07, -2.561394786059564E+06,
2460133.500000000, A.D. 2023-Jul-08 00:00:00.0000, 1.758168352478151E+08, -7.825375867220394E+06, -1.897670158764851E+06,
2460140.500000000, A.D. 2023-Jul-15 00:00:00.0000, 1.678243210207769E+08, 8.259655931142847E+06, -1.217159526834486E+06,
$$EOE